[{"OBJECT_NAME":"GAOFEN-12 05","OBJECT_ID":"2024-186A","EPOCH":"2026-03-10T00:24:03.082176","MEAN_MOTION":14.80867025,"ECCENTRICITY":8.035e-5,"INCLINATION":97.9136,"RA_OF_ASC_NODE":78.47,"ARG_OF_PERICENTER":119.8507,"MEAN_ANOMALY":240.2785,"EPHEMERIS_TYPE":0,"CLASSIFICATION_TYPE":"U","NORAD_CAT_ID":61571,"ELEMENT_SET_NO":999,"REV_AT_EPOCH":7466,"BSTAR":8.8744173e-5,"MEAN_MOTION_DOT":6.33e-6,"MEAN_MOTION_DDOT":0},{"OBJECT_NAME":"KUIPER-00064","OBJECT_ID":"2025-134AA","EPOCH":"2026-03-09T18:18:15.594336","MEAN_MOTION":14.80156064,"ECCENTRICITY":4.286e-5,"INCLINATION":51.9031,"RA_OF_ASC_NODE":235.1956,"ARG_OF_PERICENTER":14.4693,"MEAN_ANOMALY":345.6281,"EPHEMERIS_TYPE":0,"CLASSIFICATION_TYPE":"U","NORAD_CAT_ID":64524,"ELEMENT_SET_NO":999,"REV_AT_EPOCH":4005,"BSTAR":0.00091932903,"MEAN_MOTION_DOT":6.831e-5,"MEAN_MOTION_DDOT":0}]
